API VERSION: 1.2
API SOURCE: NASA/JPL Horizons API



*******************************************************************************
Ephemeris / API_USER Wed Apr  1 03:27:54 2026 Pasadena, USA      / Horizons
*******************************************************************************
Target body name: Artemis II (spacecraft) (-1024) {source: Artemis_II_merged}
Center body name: Earth (399)                     {source: DE441}
Center-site name: BODY CENTER
*******************************************************************************
Start time      : A.D. 2026-Apr-02 02:00:00.0000 TDB
Stop  time      : A.D. 2026-Apr-10 23:00:00.0000 TDB
Step-size       : 10 minutes
*******************************************************************************
Center geodetic : 0.0, 0.0, 0.0                   {E-lon(deg),Lat(deg),Alt(km)}
Center cylindric: 0.0, 0.0, 0.0                   {E-lon(deg),Dxy(km),Dz(km)}
Center radii    : 6378.137, 6378.137, 6356.752 km {Equator_a, b, pole_c}
Output units    : KM-S
Calendar mode   : Mixed Julian/Gregorian
Output type     : GEOMETRIC cartesian states
Output format   : 3 (position, velocity, LT, range, range-rate)
EOP file        : eop.260331.p260627
EOP coverage    : DATA-BASED 1962-JAN-20 TO 2026-MAR-31. PREDICTS-> 2026-JUN-26
Reference frame : ICRF
*******************************************************************************
JDTDB
   X     Y     Z
   VX    VY    VZ
   LT    RG    RR
*******************************************************************************
$$SOE
2461137.444444444 = A.D. 2026-Apr-06 22:40:00.0000 TDB 
 X =-1.319433775885537E+05 Y =-3.431715600131613E+05 Z =-1.884975277498890E+05
 VX=-4.060834488269287E-01 VY= 7.314570446161701E-02 VZ=-2.867858909058483E-02
 LT= 1.378177259983046E+00 RG= 4.131671483300222E+05 RR= 8.201121408748466E-02
2461137.451388889 = A.D. 2026-Apr-06 22:50:00.0000 TDB 
 X =-1.321843415164077E+05 Y =-3.431161339575210E+05 Z =-1.885095275266253E+05
 VX=-3.964419893404348E-01 VY= 1.115415849812532E-01 VZ=-1.131497867061725E-02
 LT= 1.378298883730414E+00 RG= 4.132036102121971E+05 RR= 3.936240337052602E-02
2461137.458333333 = A.D. 2026-Apr-06 23:00:00.0000 TDB 
 X =-1.324182952234966E+05 Y =-3.430378773490070E+05 Z =-1.885111378452160E+05
 VX=-3.827454853878925E-01 VY= 1.491023624496651E-01 VZ= 5.888062824725349E-03
 LT= 1.378334466649977E+00 RG= 4.132142777031156E+05 RR=-3.812110932976558E-03
2461137.465277778 = A.D. 2026-Apr-06 23:10:00.0000 TDB 
 X =-1.326428841263527E+05 Y =-3.429375464991253E+05 Z =-1.885025704467092E+05
 VX=-3.652967455669471E-01 VY= 1.849903825061527E-01 VZ= 2.254954460739676E-02
 LT= 1.378283913278092E+00 RG= 4.131991221834981E+05 RR=-4.655571635260764E-02
2461137.472222222 = A.D. 2026-Apr-06 23:20:00.0000 TDB 
 X =-1.328560052341390E+05 Y =-3.428163680727343E+05 Z =-1.884842551060992E+05
 VX=-3.446228743045425E-01 VY= 2.184888527638760E-01 VZ= 3.832996710716764E-02
 LT= 1.378149012306931E+00 RG= 4.131586798897671E+05 RR=-8.795877623728915E-02
2461137.479166667 = A.D. 2026-Apr-06 23:30:00.0000 TDB 
 X =-1.330559227988222E+05 Y =-3.426759453318110E+05 Z =-1.884568045110703E+05
 VX=-3.214074648271997E-01 VY= 2.490674027205898E-01 VZ= 5.296336085650851E-02
 LT= 1.377933249010116E+00 RG= 4.130939956806686E+05 RR=-1.272483917568791E-01
2461137.486111111 = A.D. 2026-Apr-06 23:40:00.0000 TDB 
 X =-1.332413368666610E+05 Y =-3.425181354158089E+05 Z =-1.884209641240541E+05
 VX=-2.964049613264615E-01 VY= 2.764119196069931E-01 VZ= 6.627462289607498E-02
 LT= 1.377641465980013E+00 RG= 4.130065213288714E+05 RR=-1.638478495079131E-01
2461137.493055556 = A.D. 2026-Apr-06 23:50:00.0000 TDB 
 X =-1.334114004274577E+05 Y =-3.423449199109513E+05 Z =-1.883775565279177E+05
 VX=-2.703582259829124E-01 VY= 3.004179383221687E-01 VZ= 7.818077737870856E-02
 LT= 1.377279442860496E+00 RG= 4.128979895280187E+05 RR=-1.973978836575950E-01
2461137.500000000 = A.D. 2026-Apr-07 00:00:00.0000 TDB 
 X =-1.335656922374155E+05 Y =-3.421582881655744E+05 Z =-1.883274291074443E+05
 VX=-2.439351350692014E-01 VY= 3.211568638602012E-01 VZ= 8.867941581985295E-02
 LT= 1.376853469148577E+00 RG= 4.127702858218790E+05 RR=-2.277438256084993E-01
2461137.506944444 = A.D. 2026-Apr-07 00:10:00.0000 TDB 
 X =-1.337041592224700E+05 Y =-3.419601456375288E+05 Z =-1.882714111310453E+05
 VX=-2.176909366698019E-01 VY= 3.388286061560410E-01 VZ= 9.782990824600835E-02
 LT= 1.376369967527696E+00 RG= 4.126253356825082E+05 RR=-2.549001760927212E-01
2461137.513888889 = A.D. 2026-Apr-07 00:20:00.0000 TDB 
 X =-1.338270438072918E+05 Y =-3.417522515609643E+05 Z =-1.882102828767607E+05
 VX=-1.920548828223935E-01 VY= 3.537129615168446E-01 VZ= 1.057328458519716E-01
 LT= 1.375835199671971E+00 RG= 4.124650163125810E+05 RR=-2.790056563918483E-01
2461137.520833333 = A.D. 2026-Apr-07 00:30:00.0000 TDB 
 X =-1.339348090113598E+05 Y =-3.415361840173064E+05 Z =-1.881447566122681E+05
 VX=-1.673349298013194E-01 VY= 3.661278282940009E-01 VZ= 1.125115589582168E-01
 LT= 1.375255062570746E+00 RG= 4.122910955850277E+05 RR=-3.002790763035923E-01
2461137.527777778 = A.D. 2026-Apr-07 00:40:00.0000 TDB 
 X =-1.340280699289771E+05 Y =-3.413133270496611E+05 Z =-1.880754675216898E+05
 VX=-1.437331441205065E-01 VY= 3.763977689454806E-01 VZ= 1.182976139034019E-01
 LT= 1.374634966941747E+00 RG= 4.121051955922152E+05 RR=-3.189820933323426E-01
2461137.534722222 = A.D. 2026-Apr-07 00:50:00.0000 TDB 
 X =-1.341075360748415E+05 Y =-3.410848734452246E+05 Z =-1.880029720202383E+05
 VX=-1.213656249586560E-01 VY= 3.848330493279075E-01 VZ= 1.232206594840090E-01
 LT= 1.373979781171043E+00 RG= 4.119087758395690E+05 RR=-3.353910994391028E-01
2461137.541666667 = A.D. 2026-Apr-07 01:00:00.0000 TDB 
 X =-1.341739658936933E+05 Y =-3.408518373388601E+05 Z =-1.879277509694065E+05
 VX=-1.002825960405916E-01 VY= 3.917175024865241E-01 VZ= 1.274021153377392E-01
 LT= 1.373293822405300E+00 RG= 4.117031305751003E+05 RR=-3.497780296750446E-01
2461137.548611111 = A.D. 2026-Apr-07 01:10:00.0000 TDB 
 X =-1.342281327714284E+05 Y =-3.406150720261961E+05 Z =-1.878502157457890E+05
 VX=-8.048638490779007E-02 VY= 3.973029164990684E-01 VZ= 1.309518173911319E-01
 LT= 1.372580878390770E+00 RG= 4.114893953365681E+05 RR=-3.623985288542086E-01
2461137.555555556 = A.D. 2026-Apr-07 01:20:00.0000 TDB 
 X =-1.342708009132748E+05 Y =-3.403752897306607E+05 Z =-1.877707156593445E+05
 VX=-6.194625805750967E-02 VY= 4.018078055932166E-01 VZ= 1.339667349364350E-01
 LT= 1.371844247153519E+00 RG= 4.112685588473131E+05 RR=-3.734856481272042E-01
2461137.562500000 = A.D. 2026-Apr-07 01:30:00.0000 TDB 
 X =-1.343027091401492E+05 Y =-3.401330812374231E+05 Z =-1.876895457118380E+05
 VX=-4.461001042201970E-02 VY= 4.054188354936480E-01 VZ= 1.365310102681599E-01
 LT= 1.371086785225078E+00 RG= 4.110414774739443E+05 RR=-3.832473469942942E-01
2461137.569444444 = A.D. 2026-Apr-07 01:40:00.0000 TDB 
 X =-1.343245607392950E+05 Y =-3.398889341974514E+05 Z =-1.876069540789917E+05
 VX=-2.841261979494525E-02 VY= 4.082936654689191E-01 VZ= 1.387167639060918E-01
 LT= 1.370310958235224E+00 RG= 4.108088903936731E+05 RR=-3.918664358121420E-01
2461137.576388889 = A.D. 2026-Apr-07 01:50:00.0000 TDB 
 X =-1.343370177494099E+05 Y =-3.396432495149839E+05 Z =-1.875231489793836E+05
 VX=-1.328248827773085E-02 VY= 4.105643803975301E-01 VZ= 1.405852791120159E-01
 LT= 1.369518890041596E+00 RG= 4.105714343230018E+05 RR=-3.995019403614722E-01
2461137.583333333 = A.D. 2026-Apr-07 02:00:00.0000 TDB 
 X =-1.343406984090432E+05 Y =-3.393963556343779E+05 Z =-1.874383047846691E+05
 VX= 8.541967961512099E-04 VY= 4.123410051993609E-01 VZ= 1.421883177844088E-01
 LT= 1.368712408326618E+00 RG= 4.103296571873366E+05 RR=-4.062911909071030E-01
2461137.590277778 = A.D. 2026-Apr-07 02:10:00.0000 TDB 
 X =-1.343361767618435E+05 Y =-3.391485207640320E+05 Z =-1.873525673375856E+05
 VX= 1.407055043068438E-02 VY= 4.137148303428573E-01 VZ= 1.435694258057449E-01
 LT= 1.367893085646556E+00 RG= 4.100840304271856E+05 RR=-4.123522123464642E-01
2461137.597222222 = A.D. 2026-Apr-07 02:20:00.0000 TDB 
 X =-1.343239836804169E+05 Y =-3.388999632010825E+05 Z =-1.872660585120362E+05
 VX= 2.643711949502913E-02 VY= 4.147614037436643E-01 VZ= 1.447651453975706E-01
 LT= 1.367062275649116E+00 RG= 4.098349598559221E+05 RR=-4.177861301102359E-01
2461137.604166667 = A.D. 2026-Apr-07 02:30:00.0000 TDB 
 X =-1.343046087755593E+05 Y =-3.386508599740777E+05 Z =-1.871788800832330E+05
 VX= 3.802075847415430E-02 VY= 4.155431423849575E-01 VZ= 1.458060990022021E-01
 LT= 1.366221144590400E+00 RG= 4.095827951083293E+05 RR=-4.226794435834795E-01
2461137.611111111 = A.D. 2026-Apr-07 02:40:00.0000 TDB 
 X =-1.342785028139179E+05 Y =-3.384013540334664E+05 Z =-1.870911169892669E+05
 VX= 4.888402667661338E-02 VY= 4.161115652927331E-01 VZ= 1.467179340054400E-01
 LT= 1.365370698502425E+00 RG= 4.093278377852188E+05 RR=-4.271060921218531E-01
2461137.618055556 = A.D. 2026-Apr-07 02:50:00.0000 TDB 
 X =-1.342460803842961E+05 Y =-3.381515602087352E+05 Z =-1.870028400666605E+05
 VX= 5.908493860059970E-02 VY= 4.165091760894015E-01 VZ= 1.475221322727390E-01
 LT= 1.364511806458359E+00 RG= 4.090703484281717E+05 RR=-4.311292850682436E-01
2461137.625000000 = A.D. 2026-Apr-07 03:00:00.0000 TDB 
 X =-1.342077226383048E+05 Y =-3.379015701318233E+05 Z =-1.869141083382162E+05
 VX= 6.867694908294636E-02 VY= 4.167710348100335E-01 VZ= 1.482366957416101E-01
 LT= 1.363645220414413E+00 RG= 4.088105524679887E+05 RR=-4.348030957527919E-01
2461137.631944444 = A.D. 2026-Apr-07 03:10:00.0000 TDB 
 X =-1.341637799919580E+05 Y =-3.376514562996923E+05 Z =-1.868249709230146E+05
 VX= 7.770908651107890E-02 VY= 4.169260618630277E-01 VZ= 1.488767225600340E-01
 LT= 1.362771592085993E+00 RG= 4.085486452840332E+05 RR=-4.381738335769819E-01
